STARLINK-3818           
1 52340U 22045K   24292.78678712  .00000659  00000+0  59484-4 0  9995
2 52340  53.2187 314.6927 0001615  93.5694 266.5483 15.08835887139249
STARLINK-3843           
1 52341U 22045L   24292.82265417  .00007938  00000+0  51605-3 0  9998
2 52341  53.2161 324.4847 0001313  90.4328 269.6815 15.08857831139120
STARLINK-3850           
1 52342U 22045M   24292.79047786  .00000385  00000+0  42315-4 0  9990
2 52342  53.2169 314.7931 0001562  95.8974 264.2196 15.08836819139257
STARLINK-3849           
1 52343U 22045N   24292.79322567  .00001768  00000+0  12911-3 0  9998
2 52343  53.2177 324.6660 0001384  91.3024 268.8127 15.08841369139121
STARLINK-3851           
1 52344U 22045P   24292.77942887  .00001338  00000+0  10211-3 0  9994
2 52344  53.2180 314.7966 0001532  86.7151 273.4016 15.08841110139256
STARLINK-3852           
1 52345U 22045Q   24292.80615331  .00002520  00000+0  17636-3 0  9992
2 52345  53.2162 314.7697 0001335  90.9592 269.1553 15.08841087139245
STARLINK-3812           
1 52346U 22045R   24292.77302369  .00001599  00000+0  11855-3 0  9995
2 52346  53.2178 314.7669 0001463  96.2190 263.8969 15.08839428139256
STARLINK-3826           
1 52347U 22045S   24292.78406252  .00002346  00000+0  16544-3 0  9994
2 52347  53.2162 314.7185 0001365  90.9947 269.1201 15.08841802139252
STARLINK-3829           
1 52348U 22045T   24292.76470302  .00000948  00000+0  77641-4 0  9992
2 52348  53.2172 314.7912 0001273  93.1763 266.9375 15.08838513139253
STARLINK-3819           
1 52349U 22045U   24292.77573976  .00001696  00000+0  12464-3 0  9997
2 52349  53.2179 314.7450 0001449  87.9148 272.2010 15.08844152139253
STARLINK-3754           
1 52350U 22045V   24292.76102237  .00004381  00000+0  29316-3 0  9994
2 52350  53.2165 314.8098 0001603  94.3806 265.7369 15.08841401139252
STARLINK-3838           
1 52352U 22045X   24292.48502358  .00001380  00000+0  10477-3 0  9997
2 52352  53.2174 316.0467 0001622 109.1594 250.9574 15.08840125139210
STARLINK-3807           
1 52353U 22045Y   24292.75734663  .00001820  00000+0  13240-3 0  9994
2 52353  53.2167 314.8257 0001408  92.6568 267.4585 15.08839439139250
STARLINK-3876           
1 52354U 22045Z   24292.80517609  .00002709  00000+0  18816-3 0  9991
2 52354  53.2175 314.6098 0001641  93.0299 267.0881 15.08850539139266
STARLINK-3877           
1 52355U 22045AA  24292.35622447  .00001428  00000+0  10778-3 0  9995
2 52355  53.2171 316.6266 0001469  94.6486 265.4674 15.08836289139195
STARLINK-3801           
1 52356U 22045AB  24292.34518464  .00002693  00000+0  18721-3 0  9999
2 52356  53.2158 316.7035 0001399  99.1870 260.9281 15.08841220139190
STARLINK-3821           
1 52357U 22045AC  24292.48133815  .00000526  00000+0  51122-4 0  9994
2 52357  53.2173 316.0645 0001514  95.1409 264.9756 15.08843800139211
STARLINK-3837           
1 52358U 22045AD  24292.79415380 -.00001635  00000+0 -84665-4 0  9991
2 52358  53.2166 314.6597 0001332  91.4395 268.6750 15.08825182139268
STARLINK-3853           
1 52359U 22045AE  24292.47861429  .00001173  00000+0  91764-4 0  9999
2 52359  53.2171 316.0888 0001594  94.2972 265.8202 15.08845958139215
STARLINK-3824           
1 52360U 22045AF  24292.45648823  .00002539  00000+0  17749-3 0  9997
2 52360  53.2174 306.1782 0001456  95.5006 264.6152 15.08853618139338
STARLINK-3728           
1 52361U 22045AG  24292.80150022  .00002868  00000+0  19821-3 0  9994
2 52361  53.2156 314.6251 0001558 100.0223 260.0945 15.08846402139265
STARLINK-3848           
1 52362U 22045AH  24292.32034015  .00000091  00000+0  23831-4 0  9998
2 52362  53.2163 306.7887 0001459  90.7684 269.3475 15.08843527139329
STARLINK-3830           
1 52363U 22045AJ  24292.79782677  .00002227  00000+0  15799-3 0  9990
2 52363  53.2167 314.6455 0001579  96.7283 263.3889 15.08834998139265
STARLINK-3820           
1 52364U 22045AK  24292.76928696  .00002563  00000+0  17904-3 0  9994
2 52364  53.2164 304.6863 0001253  91.1739 268.9397 15.08846529139391
STARLINK-3874           
1 52365U 22045AL  24292.46018063  .00001257  00000+0  97061-4 0  9992
2 52365  53.2167 306.1629 0001335  92.5197 267.5947 15.08842030139340
STARLINK-3808           
1 52366U 22045AM  24292.77298077  .00001780  00000+0  12992-3 0  9992
2 52366  53.2159 304.7577 0001541  89.6875 270.4293 15.08839961139398
STARLINK-3817           
1 52367U 22045AN  24292.78034519  .00003581  00000+0  24299-3 0  9997
2 52367  53.2158 304.7217 0001579 104.7066 255.4101 15.08836049139396
STARLINK-3834           
1 52368U 22045AP  24292.76194478  .00001951  00000+0  14063-3 0  9994
2 52368  53.2156 304.8041 0001682  91.5036 268.6148 15.08840486139382
STARLINK-3841           
1 52369U 22045AQ  24292.77665980  .00005070  00000+0  33635-3 0  9999
2 52369  53.2162 304.7404 0001110  81.4962 278.6156 15.08847530139392
STARLINK-3827           
1 52370U 22045AR  24292.77025756  .00001281  00000+0  98524-4 0  9991
2 52370  53.2177 304.7799 0001551  90.2208 269.8962 15.08843704139393
STARLINK-3798           
1 52371U 22045AS  24292.76657765  .00001576  00000+0  11706-3 0  9995
2 52371  53.2172 304.7954 0001562  91.4945 268.6226 15.08842782139389
STARLINK-3796           
1 52372U 22045AT  24292.75826510  .00002843  00000+0  19665-3 0  9991
2 52372  53.2161 304.8252 0001446  88.5985 271.5172 15.08840951139381
STARLINK-3550           
1 52373U 22045AU  24292.74722980  .00000370  00000+0  41322-4 0  9996
2 52373  53.2175 304.8706 0001485  87.4708 272.6454 15.08831143139394
STARLINK-3762           
1 52374U 22045AV  24292.48594421 -.00002086  00000+0 -11298-3 0  9991
2 52374  53.2183 306.0460 0002049  91.2506 268.8721 15.08842708139350
STARLINK-3785           
1 52375U 22045AW  24292.75458723  .00001267  00000+0  97714-4 0  9992
2 52375  53.2185 304.8429 0001799  82.8377 277.2820 15.08838458139392
STARLINK-3767           
1 52376U 22045AX  24292.74354550 -.00000042  00000+0  15477-4 0  9992
2 52376  53.2184 304.8908 0001606  92.9953 267.1223 15.08832884139395
STARLINK-3805           
1 52377U 22045AY  24292.76564873  .00001582  00000+0  11743-3 0  9996
2 52377  53.2175 305.0103 0001439  89.1434 270.9723 15.08842933139384
STARLINK-3806           
1 52378U 22045AZ  24292.73617870  .00000905  00000+0  74936-4 0  9992
2 52378  53.2162 304.9201 0001309  97.4121 262.7020 15.08841433139393
STARLINK-3800           
1 52379U 22045BA  24292.73986836  .00000437  00000+0  45554-4 0  9998
2 52379  53.2182 304.9065 0001671  92.7128 267.4056 15.08836380139397
STARLINK-3793           
1 52380U 22045BB  24292.71870552  .00000844  00000+0  71095-4 0  9996
2 52380  53.2174 295.0294 0001455  91.1947 268.9211 15.08839086139526
STARLINK-3803           
1 52381U 22045BC  24292.73249817  .00000348  00000+0  39946-4 0  9991
2 52381  53.2162 304.9361 0001347  92.7884 267.3262 15.08838204139391
STARLINK-3799           
1 52382U 22045BD  24292.72882289  .00000573  00000+0  54119-4 0  9996
2 52382  53.2177 304.9643 0001409  91.7367 268.3787 15.08837838139390
STARLINK-3811           
1 52383U 22045BE  24292.75182369  .00000406  00000+0  43601-4 0  9991
2 52383  53.2177 294.8827 0001505 102.5461 257.5699 15.08843225139530
STARLINK-3870           
1 52451U 22049A   24292.97537465  .00002061  00000+0  14750-3 0  9997
2 52451  53.2135 183.8485 0001584  90.8531 269.2643 15.08847699135614
STARLINK-3909           
1 52452U 22049B   24292.72144309  .00000694  00000+0  61670-4 0  9996
2 52452  53.2172 184.8642 0000963  76.9189 283.1911 15.08845466135574
STARLINK-3872           
1 52453U 22049C   24292.96802985  .00007019  00000+0  45876-3 0  9991
2 52453  53.2159 183.8823 0001185  96.2894 263.8233 15.08829357135613
STARLINK-3888           
1 52454U 22049D   24292.97169696  .00001901  00000+0  13747-3 0  9994
2 52454  53.2176 183.8667 0001704  88.1286 271.9902 15.08856896135612
STARLINK-3890           
1 52455U 22049E   24292.96529896  .00002014  00000+0  14455-3 0  9999
2 52455  53.2158 183.8937 0001420  86.9705 273.1450 15.08848280135610
STARLINK-3896           
1 52456U 22049F   24292.96161568  .00002675  00000+0  18605-3 0  9992
2 52456  53.2168 183.9091 0001572  93.4707 266.6465 15.08848266135614
STARLINK-3899           
1 52457U 22049G   24292.95698045  .00022867  00000+0  14490-2 0  9999
2 52457  53.2148 183.9207 0002765  83.6761 276.4546 15.08868740135616
STARLINK-3898           
1 52458U 22049H   24292.42434066  .00004634  00000+0  30902-3 0  9992
2 52458  53.2121 186.3204 0001574  94.9451 265.1720 15.08843469135531
STARLINK-3856           
1 52459U 22049J   24292.93950074  .00003699  00000+0  25032-3 0  9999
2 52459  53.2145 174.0140 0001364  70.6279 289.4861 15.08850394135740
STARLINK-3865           
1 52460U 22049K   24292.66717947  .00000181  00000+0  29484-4 0  9990
2 52460  53.2156 175.1829 0001617  85.2182 274.8995 15.08838296135705
STARLINK-3900           
1 52461U 22049L   24292.93674023  .00002568  00000+0  17933-3 0  9994
2 52461  53.2128 164.0218 0001351  91.7009 268.4138 15.08843712135885
STARLINK-3903           
1 52462U 22049M   24292.93309618  .00001620  00000+0  11986-3 0  9990
2 52462  53.2141 174.0452 0001254  91.2394 268.8742 15.08843473135740
STARLINK-3885           
1 52463U 22049N   24292.93305781  .00001259  00000+0  97184-4 0  9991
2 52463  53.2126 164.0390 0001285  92.3605 267.7534 15.08842347135886
STARLINK-3904           
1 52464U 22049P   24292.93582127  .00005133  00000+0  34025-3 0  9992
2 52464  53.2156 174.0242 0001264 103.1082 257.0051 15.08849149135742
STARLINK-3863           
1 52465U 22049Q   24292.92937801  .00001893  00000+0  13699-3 0  9998
2 52465  53.2111 164.0526 0001844  90.3102 269.8101 15.08844162135884
STARLINK-3840           
1 52466U 22049R   24292.51590751  .00178613  00000+0  69294-2 0  9999
2 52466  53.2012 170.8767 0008627 124.8004 235.3807 15.24878165135752
